STARLINK-35815          
1 66577U 25268W   25362.16668980 -.01993722  00000+0 -68699-1 0  9999
2 66577  43.0006  31.0271 0000930 280.1014 337.2355 15.32514179  6033
STARLINK-35743          
1 66578U 25268X   25362.16668980 -.02026449  00000+0 -68081-1 0  9999
2 66578  43.0003  30.9847 0000774 277.0465 357.9125 15.33364777  6031
STARLINK-35868          
1 66579U 25268Y   25362.16668980 -.02025796  00000+0 -66255-1 0  9995
2 66579  43.0004  30.9427 0000885 269.3517  22.6720 15.34203531  5983
STARLINK-35872          
1 66580U 25268Z   25362.16668980 -.02059348  00000+0 -65647-1 0  9991
2 66580  43.0002  30.9028 0001173 252.7091  55.8195 15.35052752  6033
STARLINK-35744          
1 66581U 25268AA  25362.16668980 -.02007650  00000+0 -63294-1 0  9997
2 66581  43.0004  30.8642 0001151 253.6809  70.7903 15.35883395  6038
STARLINK-35746          
1 66582U 25268AB  25362.16668980 -.02020779  00000+0 -60835-1 0  9993
2 66582  43.0005  30.8019 0001692 258.5293  90.8602 15.37318780  6031
STARLINK-35941          
1 66583U 25268AC  25362.16668980 -.02105861  00000+0 -60734-1 0  9998
2 66583  43.0000  30.7670 0001466 260.1348 103.6408 15.38197616  6039
STARLINK-35939          
1 66584U 25268AD  25362.16668980 -.02074505  00000+0 -59234-1 0  9992
2 66584  43.0008  30.7341 0001511 263.2829 114.1542 15.39026789  6031
STARLINK-35963          
1 66585U 25268AE  25362.16668980  .00011295  00000+0  41954-3 0  9998
2 66585  43.0007  31.3420 0000867 270.7521 214.9027 15.27564995  6031
TJS-21                  
1 66586U 25269A   25356.69533331  .00001087  00000+0 -73521-1 0  9994
2 66586  63.2754 161.3014 6807617 269.7248  18.6681  2.00587444   632
STARLINK-36076          
1 66588U 25270A   25361.58331578  .00052619  00000+0  12581-2 0  9997
2 66588  42.9992 107.2541 0000964 262.8597  97.2150 15.40704491  6632
STARLINK-35447          
1 66589U 25270B   25361.63020786  .00039466  00000+0  94388-3 0  9991
2 66589  43.0015 106.7428 0002306 271.1588  88.9004 15.40802929  6757
