CCSDS_OMM_VERS = 2.0
CREATION_DATE  = 
ORIGINATOR     = 

OBJECT_NAME    = STARLINK-35815
OBJECT_ID      = 2025-268W
CENTER_NAME    = EARTH
REF_FRAME      = TEME
TIME_SYSTEM    = UTC
MEAN_ELEMENT_THEORY = SGP/SGP4

EPOCH          = 2025-12-28T04:00:01.998720
MEAN_MOTION    = 15.32514179
ECCENTRICITY   = .000093
INCLINATION    = 43.0006
RA_OF_ASC_NODE = 31.0271
ARG_OF_PERICENTER = 280.1014
MEAN_ANOMALY   = 337.2355

EPHEMERIS_TYPE = 0
CLASSIFICATION_TYPE = U
NORAD_CAT_ID   = 66577
ELEMENT_SET_NO = 999
REV_AT_EPOCH   = 603
BSTAR          = -.68699E-1
MEAN_MOTION_DOT = -.1993722E-1
MEAN_MOTION_DDOT = 0

CCSDS_OMM_VERS = 2.0
CREATION_DATE  = 
ORIGINATOR     = 

OBJECT_NAME    = STARLINK-35743
OBJECT_ID      = 2025-268X
CENTER_NAME    = EARTH
REF_FRAME      = TEME
TIME_SYSTEM    = UTC
MEAN_ELEMENT_THEORY = SGP/SGP4

EPOCH          = 2025-12-28T04:00:01.998720
MEAN_MOTION    = 15.33364777
ECCENTRICITY   = .0000774
INCLINATION    = 43.0003
RA_OF_ASC_NODE = 30.9847
ARG_OF_PERICENTER = 277.0465
MEAN_ANOMALY   = 357.9125

EPHEMERIS_TYPE = 0
CLASSIFICATION_TYPE = U
NORAD_CAT_ID   = 66578
ELEMENT_SET_NO = 999
REV_AT_EPOCH   = 603
BSTAR          = -.68081E-1
MEAN_MOTION_DOT = -.2026449E-1
MEAN_MOTION_DDOT = 0

CCSDS_OMM_VERS = 2.0
CREATION_DATE  = 
ORIGINATOR     = 

OBJECT_NAME    = STARLINK-35868
OBJECT_ID      = 2025-268Y
CENTER_NAME    = EARTH
REF_FRAME      = TEME
TIME_SYSTEM    = UTC
MEAN_ELEMENT_THEORY = SGP/SGP4

EPOCH          = 2025-12-28T04:00:01.998720
MEAN_MOTION    = 15.34203531
ECCENTRICITY   = .0000885
INCLINATION    = 43.0004
RA_OF_ASC_NODE = 30.9427
ARG_OF_PERICENTER = 269.3517
MEAN_ANOMALY   = 22.6720

EPHEMERIS_TYPE = 0
CLASSIFICATION_TYPE = U
NORAD_CAT_ID   = 66579
ELEMENT_SET_NO = 999
REV_AT_EPOCH   = 598
BSTAR          = -.66255E-1
MEAN_MOTION_DOT = -.2025796E-1
MEAN_MOTION_DDOT = 0

CCSDS_OMM_VERS = 2.0
CREATION_DATE  = 
ORIGINATOR     = 

OBJECT_NAME    = STARLINK-35872
OBJECT_ID      = 2025-268Z
CENTER_NAME    = EARTH
REF_FRAME      = TEME
TIME_SYSTEM    = UTC
MEAN_ELEMENT_THEORY = SGP/SGP4

EPOCH          = 2025-12-28T04:00:01.998720
MEAN_MOTION    = 15.35052752
ECCENTRICITY   = .0001173
INCLINATION    = 43.0002
RA_OF_ASC_NODE = 30.9028
ARG_OF_PERICENTER = 252.7091
MEAN_ANOMALY   = 55.8195

EPHEMERIS_TYPE = 0
CLASSIFICATION_TYPE = U
NORAD_CAT_ID   = 66580
ELEMENT_SET_NO = 999
REV_AT_EPOCH   = 603
BSTAR          = -.65647E-1
MEAN_MOTION_DOT = -.2059348E-1
MEAN_MOTION_DDOT = 0

CCSDS_OMM_VERS = 2.0
CREATION_DATE  = 
ORIGINATOR     = 

OBJECT_NAME    = STARLINK-35744
OBJECT_ID      = 2025-268AA
CENTER_NAME    = EARTH
REF_FRAME      = TEME
TIME_SYSTEM    = UTC
MEAN_ELEMENT_THEORY = SGP/SGP4

EPOCH          = 2025-12-28T04:00:01.998720
MEAN_MOTION    = 15.35883395
ECCENTRICITY   = .0001151
INCLINATION    = 43.0004
RA_OF_ASC_NODE = 30.8642
ARG_OF_PERICENTER = 253.6809
MEAN_ANOMALY   = 70.7903

EPHEMERIS_TYPE = 0
CLASSIFICATION_TYPE = U
NORAD_CAT_ID   = 66581
ELEMENT_SET_NO = 999
REV_AT_EPOCH   = 603
BSTAR          = -.63294E-1
MEAN_MOTION_DOT = -.200765E-1
MEAN_MOTION_DDOT = 0

CCSDS_OMM_VERS = 2.0
CREATION_DATE  = 
ORIGINATOR     = 

OBJECT_NAME    = STARLINK-35746
OBJECT_ID      = 2025-268AB
CENTER_NAME    = EARTH
REF_FRAME      = TEME
TIME_SYSTEM    = UTC
MEAN_ELEMENT_THEORY = SGP/SGP4

EPOCH          = 2025-12-28T04:00:01.998720
MEAN_MOTION    = 15.37318780
ECCENTRICITY   = .0001692
INCLINATION    = 43.0005
RA_OF_ASC_NODE = 30.8019
ARG_OF_PERICENTER = 258.5293
MEAN_ANOMALY   = 90.8602

EPHEMERIS_TYPE = 0
CLASSIFICATION_TYPE = U
NORAD_CAT_ID   = 66582
ELEMENT_SET_NO = 999
REV_AT_EPOCH   = 603
BSTAR          = -.60835E-1
MEAN_MOTION_DOT = -.2020779E-1
MEAN_MOTION_DDOT = 0

CCSDS_OMM_VERS = 2.0
CREATION_DATE  = 
ORIGINATOR     = 

OBJECT_NAME    = STARLINK-35941
OBJECT_ID      = 2025-268AC
CENTER_NAME    = EARTH
REF_FRAME      = TEME
TIME_SYSTEM    = UTC
MEAN_ELEMENT_THEORY = SGP/SGP4

EPOCH          = 2025-12-28T04:00:01.998720
MEAN_MOTION    = 15.38197616
ECCENTRICITY   = .0001466
INCLINATION    = 43.0000
RA_OF_ASC_NODE = 30.7670
ARG_OF_PERICENTER = 260.1348
MEAN_ANOMALY   = 103.6408

EPHEMERIS_TYPE = 0
CLASSIFICATION_TYPE = U
NORAD_CAT_ID   = 66583
ELEMENT_SET_NO = 999
REV_AT_EPOCH   = 603
BSTAR          = -.60734E-1
MEAN_MOTION_DOT = -.2105861E-1
MEAN_MOTION_DDOT = 0

CCSDS_OMM_VERS = 2.0
CREATION_DATE  = 
ORIGINATOR     = 

OBJECT_NAME    = STARLINK-35939
OBJECT_ID      = 2025-268AD
CENTER_NAME    = EARTH
REF_FRAME      = TEME
TIME_SYSTEM    = UTC
MEAN_ELEMENT_THEORY = SGP/SGP4

EPOCH          = 2025-12-28T04:00:01.998720
MEAN_MOTION    = 15.39026789
ECCENTRICITY   = .0001511
INCLINATION    = 43.0008
RA_OF_ASC_NODE = 30.7341
ARG_OF_PERICENTER = 263.2829
MEAN_ANOMALY   = 114.1542

EPHEMERIS_TYPE = 0
CLASSIFICATION_TYPE = U
NORAD_CAT_ID   = 66584
ELEMENT_SET_NO = 999
REV_AT_EPOCH   = 603
BSTAR          = -.59234E-1
MEAN_MOTION_DOT = -.2074505E-1
MEAN_MOTION_DDOT = 0

CCSDS_OMM_VERS = 2.0
CREATION_DATE  = 
ORIGINATOR     = 

OBJECT_NAME    = STARLINK-35963
OBJECT_ID      = 2025-268AE
CENTER_NAME    = EARTH
REF_FRAME      = TEME
TIME_SYSTEM    = UTC
MEAN_ELEMENT_THEORY = SGP/SGP4

EPOCH          = 2025-12-28T04:00:01.998720
MEAN_MOTION    = 15.27564995
ECCENTRICITY   = .0000867
INCLINATION    = 43.0007
RA_OF_ASC_NODE = 31.3420
ARG_OF_PERICENTER = 270.7521
MEAN_ANOMALY   = 214.9027

EPHEMERIS_TYPE = 0
CLASSIFICATION_TYPE = U
NORAD_CAT_ID   = 66585
ELEMENT_SET_NO = 999
REV_AT_EPOCH   = 603
BSTAR          = .41954E-3
MEAN_MOTION_DOT = .11295E-3
MEAN_MOTION_DDOT = 0

CCSDS_OMM_VERS = 2.0
CREATION_DATE  = 
ORIGINATOR     = 

OBJECT_NAME    = TJS-21
OBJECT_ID      = 2025-269A
CENTER_NAME    = EARTH
REF_FRAME      = TEME
TIME_SYSTEM    = UTC
MEAN_ELEMENT_THEORY = SGP/SGP4

EPOCH          = 2025-12-22T16:41:16.797984
MEAN_MOTION    = 2.00587444
ECCENTRICITY   = .68076174
INCLINATION    = 63.2754
RA_OF_ASC_NODE = 161.3014
ARG_OF_PERICENTER = 269.7248
MEAN_ANOMALY   = 18.6681

EPHEMERIS_TYPE = 0
CLASSIFICATION_TYPE = U
NORAD_CAT_ID   = 66586
ELEMENT_SET_NO = 999
REV_AT_EPOCH   = 63
BSTAR          = -.73521313E-1
MEAN_MOTION_DOT = .1087E-4
MEAN_MOTION_DDOT = 0

CCSDS_OMM_VERS = 2.0
CREATION_DATE  = 
ORIGINATOR     = 

OBJECT_NAME    = STARLINK-36076
OBJECT_ID      = 2025-270A
CENTER_NAME    = EARTH
REF_FRAME      = TEME
TIME_SYSTEM    = UTC
MEAN_ELEMENT_THEORY = SGP/SGP4

EPOCH          = 2025-12-27T13:59:58.483392
MEAN_MOTION    = 15.40704491
ECCENTRICITY   = .00009644
INCLINATION    = 42.9992
RA_OF_ASC_NODE = 107.2541
ARG_OF_PERICENTER = 262.8597
MEAN_ANOMALY   = 97.2150

EPHEMERIS_TYPE = 0
CLASSIFICATION_TYPE = U
NORAD_CAT_ID   = 66588
ELEMENT_SET_NO = 999
REV_AT_EPOCH   = 663
BSTAR          = .12580604E-2
MEAN_MOTION_DOT = .52619E-3
MEAN_MOTION_DDOT = 0

CCSDS_OMM_VERS = 2.0
CREATION_DATE  = 
ORIGINATOR     = 

OBJECT_NAME    = STARLINK-35447
OBJECT_ID      = 2025-270B
CENTER_NAME    = EARTH
REF_FRAME      = TEME
TIME_SYSTEM    = UTC
MEAN_ELEMENT_THEORY = SGP/SGP4

EPOCH          = 2025-12-27T15:07:29.959104
MEAN_MOTION    = 15.40802929
ECCENTRICITY   = .00023062
INCLINATION    = 43.0015
RA_OF_ASC_NODE = 106.7428
ARG_OF_PERICENTER = 271.1588
MEAN_ANOMALY   = 88.9004

EPHEMERIS_TYPE = 0
CLASSIFICATION_TYPE = U
NORAD_CAT_ID   = 66589
ELEMENT_SET_NO = 999
REV_AT_EPOCH   = 675
BSTAR          = .94388383E-3
MEAN_MOTION_DOT = .39466E-3
MEAN_MOTION_DDOT = 0

